NORAD_CAT_ID,OBJECT_NAME,OBJECT_TYPE,EPOCH,MEAN_MOTION,ECCENTRICITY,INCLINATION,RA_OF_ASC_NODE,ARG_OF_PERICENTER,MEAN_ANOMALY,BSTAR,MEAN_MOTION_DOT,MEAN_MOTION_DDOT,TLE_LINE0,TLE_LINE1,TLE_LINE2,SEMIMAJOR_AXIS,PERIOD,APOGEE,PERIGEE,DECAYED
54062.0,STARLINK-5170,PAYLOAD,2023-09-03 00:01:46,15.08840885,0.0001623,53.2144,148.2414,88.6059,271.5118,2.6287e-05,1.3e-06,0.0,0 STARLINK-5170,1 54062U 22136M   23246.00122915  .00000130  00000-0  26287-4 0  9991,2 54062  53.2144 148.2414 0001623  88.6059 271.5118 15.08840885 48633,6917.878,95.437,540.865,538.62,0.0
54062.0,STARLINK-5170,PAYLOAD,2023-09-03 11:09:28,15.08840076,0.0001268,53.2175,146.1592,92.9809,267.1328,1.7734e-05,-6e-08,0.0,0 STARLINK-5170,1 54062U 22136M   23246.46490951 -.00000006  00000-0  17734-4 0  9999,2 54062  53.2175 146.1592 0001268  92.9809 267.1328 15.08840076 48228,6917.88,95.438,540.622,538.868,0.0
54062.0,STARLINK-5170,PAYLOAD,2023-09-04 03:03:19,15.08835137,0.0001586,53.2178,143.1861,90.0475,270.0699,5.1806e-05,5.36e-06,0.0,0 STARLINK-5170,1 54062U 22136M   23247.12731244  .00000536  00000-0  51806-4 0  9991,2 54062  53.2178 143.1861 0001586  90.0475 270.0699 15.08835137 48808,6917.895,95.438,540.857,538.663,0.0
54062.0,STARLINK-5170,PAYLOAD,2023-09-04 23:43:20,15.08850673,0.0001403,53.2176,139.3204,93.6262,266.4891,-0.00011515,-2.121e-05,0.0,0 STARLINK-5170,1 54062U 22136M   23247.98843135 -.00002121  00000-0 -11515-3 0  9994,2 54062  53.2176 139.3204 0001403  93.6262 266.4891 15.08850673 48934,6917.848,95.437,540.683,538.742,0.0
54062.0,STARLINK-5170,PAYLOAD,2023-09-05 23:34:07,15.08835657,0.0001326,53.2168,134.8608,93.864,266.2504,8.0471e-05,9.93e-06,0.0,0 STARLINK-5170,1 54062U 22136M   23248.98203523  .00000993  00000-0  80471-4 0  9997,2 54062  53.2168 134.8608 0001326  93.8640 266.2504 15.08835657 49080,6917.894,95.438,540.676,538.841,0.0
54062.0,STARLINK-5170,PAYLOAD,2023-09-07 01:00:18,15.08799409,0.0001614,53.2171,130.1035,95.4529,264.6647,0.00063245,9.781e-05,0.0,0 STARLINK-5170,1 54062U 22136M   23250.04188251  .00009781  00000-0  63245-3 0  9990,2 54062  53.2171 130.1035 0001614  95.4529 264.6647 15.08799409 49243,6918.004,95.44,540.986,538.753,0.0
54062.0,STARLINK-5170,PAYLOAD,2023-09-08 00:51:05,15.08831922,0.0001389,53.2168,125.6423,89.6171,270.498,-1.4595e-05,-5.2e-06,0.0,0 STARLINK-5170,1 54062U 22136M   23251.03548464 -.00000520  00000-0 -14595-4 0  9995,2 54062  53.2168 125.6423 0001389  89.6171 270.4980 15.08831922 49394,6917.905,95.438,540.731,538.809,0.0
54062.0,STARLINK-5170,PAYLOAD,2023-09-08 21:31:07,15.0882112,0.000142,53.2159,121.7762,91.705,268.4105,5.9574e-05,6.6e-06,0.0,0 STARLINK-5170,1 54062U 22136M   23251.89661385  .00000660  00000-0  59574-4 0  9996,2 54062  53.2159 121.7762 0001420  91.7050 268.4105 15.08821120 49040,6917.938,95.439,540.785,538.821,0.0
54062.0,STARLINK-5170,PAYLOAD,2023-09-09 00:41:53,15.08839578,0.0001412,53.2165,121.1822,84.3191,275.7962,-6.4048e-05,-1.307e-05,0.0,0 STARLINK-5170,1 54062U 22136M   23252.02908854 -.00001307  00000-0 -64048-4 0  9990,2 54062  53.2165 121.1822 0001412  84.3191 275.7962 15.08839578 49063,6917.882,95.438,540.723,538.77,0.0
54062.0,STARLINK-5170,PAYLOAD,2023-09-10 00:32:38,15.08849226,0.0001441,53.2166,116.7204,86.9414,273.1743,0.00030116,4.509e-05,0.0,0 STARLINK-5170,1 54062U 22136M   23253.02267108  .00004509  00000-0  30116-3 0  9994,2 54062  53.2166 116.7204 0001441  86.9414 273.1743 15.08849226 49695,6917.852,95.437,540.714,538.72,0.0
54062.0,STARLINK-5170,PAYLOAD,2023-09-10 18:01:54,15.08846885,0.0001343,53.2169,113.4497,87.6352,272.4794,9.3247e-05,1.197e-05,0.0,0 STARLINK-5170,1 54062U 22136M   23253.75132013  .00001197  00000-0  93247-4 0  9995,2 54062  53.2169 113.4497 0001343  87.6352 272.4794 15.08846885 49805,6917.859,95.437,540.653,538.795,0.0
54062.0,STARLINK-5170,PAYLOAD,2023-09-11 00:23:26,15.08847276,0.0001399,53.2169,112.2592,94.2353,265.8799,7.5957e-05,9.21e-06,0.0,0 STARLINK-5170,1 54062U 22136M   23254.01627910  .00000921  00000-0  75957-4 0  9992,2 54062  53.2169 112.2592 0001399  94.2353 265.8799 15.08847276 49361,6917.858,95.437,540.691,538.755,0.0
54062.0,STARLINK-5170,PAYLOAD,2023-09-12 00:14:13,15.08854825,0.0001326,53.2162,107.7996,85.6047,274.5097,-9.0178e-05,-1.723e-05,0.0,0 STARLINK-5170,1 54062U 22136M   23255.00987506 -.00001723  00000-0 -90178-4 0  9997,2 54062  53.2162 107.7996 0001326  85.6047 274.5097 15.08854825 49990,6917.835,95.437,540.617,538.783,0.0
54062.0,STARLINK-5170,PAYLOAD,2023-09-12 17:43:28,15.08838591,0.000141,53.2166,104.5279,94.7689,265.3464,3.676e-05,2.97e-06,0.0,0 STARLINK-5170,1 54062U 22136M   23255.73852070  .00000297  00000-0  36760-4 0  9994,2 54062  53.2166 104.5279 0001410  94.7689 265.3464 15.08838591 50103,6917.885,95.438,540.725,538.774,0.0
54062.0,STARLINK-5170,PAYLOAD,2023-09-12 19:18:51,15.08839232,0.0001403,53.2168,104.2305,94.8568,265.2584,4.4874e-05,4.26e-06,0.0,0 STARLINK-5170,1 54062U 22136M   23255.80476032  .00000426  00000-0  44874-4 0  9991,2 54062  53.2168 104.2305 0001403  94.8568 265.2584 15.08839232 49632,6917.883,95.438,540.718,538.777,0.0
54062.0,STARLINK-5170,PAYLOAD,2023-09-12 22:29:36,15.08847005,0.000151,53.2174,103.6345,106.8637,253.252,0.00012107,1.64e-05,0.0,0 STARLINK-5170,1 54062U 22136M   23255.93723284  .00001640  00000-0  12107-3 0  9991,2 54062  53.2174 103.6345 0001510 106.8637 253.2520 15.08847005 50137,6917.859,95.437,540.769,538.679,0.0
54062.0,STARLINK-5170,PAYLOAD,2023-09-13 12:48:05,15.08841791,0.0001405,53.2173,100.9601,96.1763,263.9389,0.00011197,1.495e-05,0.0,0 STARLINK-5170,1 54062U 22136M   23256.53339669  .00001495  00000-0  11197-3 0  9994,2 54062  53.2173 100.9601 0001405  96.1763 263.9389 15.08841791 49747,6917.875,95.437,540.712,538.768,0.0
54062.0,STARLINK-5170,PAYLOAD,2023-09-13 17:34:14,15.08844604,0.0001328,53.2171,100.0684,95.2937,264.8206,8.4129e-05,1.051e-05,0.0,0 STARLINK-5170,1 54062U 22136M   23256.73211558  .00001051  00000-0  84129-4 0  9996,2 54062  53.2171 100.0684 0001328  95.2937 264.8206 15.08844604 50256,6917.866,95.437,540.65,538.813,0.0
54062.0,STARLINK-5170,PAYLOAD,2023-09-13 20:45:00,15.0884795,0.0001176,53.216,99.4736,84.8448,275.2679,0.00010924,1.451e-05,0.0,0 STARLINK-5170,1 54062U 22136M   23256.86459254  .00001451  00000-0  10924-3 0  9992,2 54062  53.2160  99.4736 0001176  84.8448 275.2679 15.08847950 49799,6917.856,95.437,540.535,538.908,0.0
54062.0,STARLINK-5170,PAYLOAD,2023-09-13 23:55:46,15.08849189,0.0001207,53.2161,98.8787,86.2733,273.8397,0.00012107,1.64e-05,0.0,0 STARLINK-5170,1 54062U 22136M   23256.99707111  .00001640  00000-0  12107-3 0  9999,2 54062  53.2161  98.8787 0001207  86.2733 273.8397 15.08849189 49817,6917.852,95.437,540.552,538.882,0.0
54062.0,STARLINK-5170,PAYLOAD,2023-09-14 17:25:02,15.08833186,0.0001426,53.2177,95.608,106.2583,253.8566,-4.1275e-05,-9.45e-06,0.0,0 STARLINK-5170,1 54062U 22136M   23257.72572812 -.00000945  00000-0 -41275-4 0  9997,2 54062  53.2177  95.6080 0001426 106.2583 253.8566 15.08833186 50407,6917.901,95.438,540.753,538.78,0.0
54062.0,STARLINK-5170,PAYLOAD,2023-09-14 20:35:49,15.08832532,0.0001251,53.2177,95.014,86.9763,273.1372,-4.3782e-05,-9.84e-06,0.0,0 STARLINK-5170,1 54062U 22136M   23257.85820942 -.00000984  00000-0 -43782-4 0  9999,2 54062  53.2177  95.0140 0001251  86.9763 273.1372 15.08832532 49949,6917.903,95.438,540.634,538.903,0.0
54062.0,STARLINK-5170,PAYLOAD,2023-09-14 23:46:35,15.08835078,0.0001263,53.2177,94.4182,99.4748,260.6387,-2.4955e-05,-6.85e-06,0.0,0 STARLINK-5170,1 54062U 22136M   23257.99068706 -.00000685  00000-0 -24955-4 0  9995,2 54062  53.2177  94.4182 0001263  99.4748 260.6387 15.08835078 49960,6917.895,95.438,540.634,538.887,0.0
54062.0,STARLINK-5170,PAYLOAD,2023-09-15 17:15:49,15.0884324,0.0001046,53.2167,91.1465,89.4315,270.6797,3.9122e-05,3.35e-06,0.0,0 STARLINK-5170,1 54062U 22136M   23258.71932158  .00000335  00000-0  39122-4 0  9999,2 54062  53.2167  91.1465 0001046  89.4315 270.6797 15.08843240 50558,6917.87,95.437,540.459,539.012,0.0
54062.0,STARLINK-5170,PAYLOAD,2023-09-16 12:20:27,15.08832188,0.0001192,53.2174,87.5795,82.8838,277.229,0.0001632,2.31e-05,0.0,0 STARLINK-5170,1 54062U 22136M   23259.51420910  .00002310  00000-0  16320-3 0  9995,2 54062  53.2174  87.5795 0001192  82.8838 277.2290 15.08832188 50190,6917.904,95.438,540.594,538.945,0.0
54062.0,STARLINK-5170,PAYLOAD,2023-09-16 18:42:00,15.08834977,0.0001108,53.2169,86.3899,84.0666,276.0452,0.00011981,1.619e-05,0.0,0 STARLINK-5170,1 54062U 22136M   23259.77916969  .00001619  00000-0  11981-3 0  9996,2 54062  53.2169  86.3899 0001108  84.0666 276.0452 15.08834977 50719,6917.896,95.438,540.527,538.994,0.0
54062.0,STARLINK-5170,PAYLOAD,2023-09-17 12:11:14,15.08833296,0.0001101,53.2168,83.1189,84.3188,275.793,0.0003103,4.653e-05,0.0,0 STARLINK-5170,1 54062U 22136M   23260.50781087  .00004653  00000-0  31030-3 0  9998,2 54062  53.2168  83.1189 0001101  84.3188 275.7930 15.08833296 50349,6917.901,95.438,540.528,539.004,0.0
54062.0,STARLINK-5170,PAYLOAD,2023-09-17 18:32:46,15.08850704,0.0001124,53.217,81.9293,83.8114,276.3006,0.00012044,1.63e-05,0.0,0 STARLINK-5170,1 54062U 22136M   23260.77275981  .00001630  00000-0  12044-3 0  9994,2 54062  53.2170  81.9293 0001124  83.8114 276.3006 15.08850704 50863,6917.848,95.437,540.49,538.935,0.0
54062.0,STARLINK-5170,PAYLOAD,2023-09-18 05:40:28,15.0884255,0.00011,53.2168,79.8474,87.2532,272.8586,0.00013893,1.924e-05,0.0,0 STARLINK-5170,1 54062U 22136M   23261.23644403  .00001924  00000-0  13893-3 0  9994,2 54062  53.2168  79.8474 0001100  87.2532 272.8586 15.08842550 50935,6917.873,95.437,540.499,538.977,0.0
54062.0,STARLINK-5170,PAYLOAD,2023-09-18 12:02:01,15.08838006,0.0001233,53.2173,78.659,89.2949,270.8184,9.2384e-05,1.183e-05,0.0,0 STARLINK-5170,1 54062U 22136M   23261.50140807  .00001183  00000-0  92384-4 0  9993,2 54062  53.2173  78.6590 0001233  89.2949 270.8184 15.08838006 50492,6917.886,95.438,540.604,538.899,0.0
